DUCHIFAT-3              
1 44854U 19089C   23008.24001929  .00007321  00000+0  54035-3 0  9994
2 44854  36.9660 324.8663 0005844  83.3068  51.7269 15.02898668168736
OPS-SAT                 
1 44878U 19092F   23007.47160243  .00019579  00000+0  79313-3 0  9997
2 44878  97.4751 195.2738 0011594 353.5466   6.5620 15.24644691169224
FLORIPASAT-1            
1 44885U 19093G   23008.11648301  .00003473  00000+0  42229-3 0  9996
2 44885  97.8839  91.1668 0013004 242.0871 117.9051 14.84071003165192
HUSKYSAT-1 (HO-107)     
1 45119U 19071J   23007.72576214  .00083702  00000+0  10258-2 0  9991
2 45119  51.6337 126.9799 0007620 216.6964 143.3508 15.59592565165052
BY70-2                  
1 45857U 20042B   23008.18437308  .00013294  00000+0  16329-2 0  9995
2 45857  97.9418  88.3301 0010088 166.9335 193.2207 14.83142046135761
SALSAT                  
1 46495U 20068K   23007.27881670  .00004545  00000+0  31835-3 0  9995
2 46495  97.7525 314.0117 0014985 310.5728  49.4193 15.05658610124841
NETSAT-4                
1 46504U 20068U   23007.82102189  .00005343  00000+0  38163-3 0  9996
2 46504  97.7461 312.6112 0011795   3.8554 356.2769 15.04876301124762
NETSAT-3                
1 46505U 20068V   23007.77613419  .00005924  00000+0  42330-3 0  9990
2 46505  97.7435 312.4478 0010838  10.1956 349.9496 15.04825364124760
NETSAT-1                
1 46506U 20068W   23007.80041756  .00004454  00000+0  32016-3 0  9991
2 46506  97.7435 312.3856 0009987  20.3712 339.7950 15.04743189124762
NETSAT-2                
1 46507U 20068X   23007.61152913  .00005092  00000+0  36505-3 0  9995
2 46507  97.7450 312.1880 0009777  29.4587 330.7225 15.04779421124687
BY70-3                  
1 46839U 20079N   23008.15903294  .00078007  00000+0  10887-2 0  9991
2 46839  97.1758  83.9365 0003628 313.3604 130.4779 15.56617803121908
UVSQ-SAT                
1 47438U 21006AB  23007.90025264  .00012779  00000+0  61851-3 0  9994
2 47438  97.4113  67.7550 0009772 287.0187  72.9977 15.18667632108275
SOMP2B                  
1 47445U 21006AJ  23008.08569164  .00011635  00000+0  57208-3 0  9995
2 47445  97.4084  67.4039 0009433 291.6795  68.3434 15.18144099108284
DIY-1 (ARDUIQUBE)       
1 47963U 21022AH  23007.47635657  .00043213  00000+0  18333-2 0  9993
2 47963  97.5175 272.3535 0014798 137.5620 222.6764 15.22871040 97886
CAS-5A                  
1 54684U 22167C   23008.18121618  .00009954  00000+0  62804-3 0  9995
2 54684  97.5396 147.6588 0014997 161.0160 322.7475 15.09208545  4500
